{"type": "FeatureCollection", "features": [{"type": "Feature", "properties": {"norad_id": 28054, "name": "DMSP 5D-3 F16 (USA 172)", "group": "weather", "lat": -17.250348931706764, "lon": -179.92183984928482, "alt_km": 852.0097449616151, "timestamp": "2025-12-11T10:53:15.525887+00:00", "meta": {"OBJECT_NAME": "DMSP 5D-3 F16 (USA 172)", "OBJECT_ID": "2003-048A", "EPOCH": "2025-12-11T05:15:15.086304", "MEAN_MOTION": 14.14423327, "ECCENTRICITY": 0.0006551, "INCLINATION": 99.0048, "RA_OF_ASC_NODE": 2.6639, "ARG_OF_PERICENTER": 325.6458, "MEAN_ANOMALY": 117.2216, "EPHEMERIS_TYPE": 0, "CLASSIFICATION_TYPE": "U", "NORAD_CAT_ID": 28054, "ELEMENT_SET_NO": 999, "REV_AT_EPOCH": 14291, "BSTAR": 0.00012643, "MEAN_MOTION_DOT": 1.97e-06, "MEAN_MOTION_DDOT": 0}, "tle": {"line1": "1 28054U 03048A   25345.21892461  .00000197  00000+0  12643-3 0  9991", "line2": "2 28054  99.0048   2.6639 0006551 325.6458 117.2216 14.14423327142915"}}, "geometry": {"type": "Point", "coordinates": [-179.92183984928482, -17.250348931706764]}}, {"type": "Feature", "properties": {"norad_id": 28912, "name": "METEOSAT-9 (MSG-2)", "group": "weather", "lat": -7.182118491104449, "lon": -70.91564039817607, "alt_km": 35774.47285665803, "timestamp": "2025-12-11T10:53:15.525939+00:00", "meta": {"OBJECT_NAME": "METEOSAT-9 (MSG-2)", "OBJECT_ID": "2005-049B", "EPOCH": "2025-12-10T20:37:31.694304", "MEAN_MOTION": 1.00275463, "ECCENTRICITY": 0.0003704, "INCLINATION": 8.9357, "RA_OF_ASC_NODE": 55.9949, "ARG_OF_PERICENTER": 190.2808, "MEAN_ANOMALY": 188.5842, "EPHEMERIS_TYPE": 0, "CLASSIFICATION_TYPE": "U", "NORAD_CAT_ID": 28912, "ELEMENT_SET_NO": 999, "REV_AT_EPOCH": 511, "BSTAR": 0, "MEAN_MOTION_DOT": 1.27e-06, "MEAN_MOTION_DDOT": 0}, "tle": {"line1": "1 28912U 05049B   25344.85939461  .00000127  00000+0  00000+0 0  9991", "line2": "2 28912   8.9357  55.9949 0003704 190.2808 188.5842  1.00275463  5110"}}, "geometry": {"type": "Point", "coordinates": [-70.91564039817607, -7.182118491104449]}}, {"type": "Feature", "properties": {"norad_id": 29522, "name": "DMSP 5D-3 F17 (USA 191)", "group": "weather", "lat": 43.8443869923175, "lon": 179.3654421936233, "alt_km": 839.261162219871, "timestamp": "2025-12-11T10:53:15.525956+00:00", "meta": {"OBJECT_NAME": "DMSP 5D-3 F17 (USA 191)", "OBJECT_ID": "2006-050A", "EPOCH": "2025-12-11T05:09:26.559072", "MEAN_MOTION": 14.14918401, "ECCENTRICITY": 0.0009343, "INCLINATION": 98.7394, "RA_OF_ASC_NODE": 350.6357, "ARG_OF_PERICENTER": 229.6304, "MEAN_ANOMALY": 130.4055, "EPHEMERIS_TYPE": 0, "CLASSIFICATION_TYPE": "U", "NORAD_CAT_ID": 29522, "ELEMENT_SET_NO": 999, "REV_AT_EPOCH": 98583, "BSTAR": 0.00015507, "MEAN_MOTION_DOT": 2.56e-06, "MEAN_MOTION_DDOT": 0}, "tle": {"line1": "1 29522U 06050A   25345.21489073  .00000256  00000+0  15507-3 0  9997", "line2": "2 29522  98.7394 350.6357 0009343 229.6304 130.4055 14.14918401985830"}}, "geometry": {"type": "Point", "coordinates": [179.3654421936233, 43.8443869923175]}}, {"type": "Feature", "properties": {"norad_id": 32958, "name": "FENGYUN 3A", "group": "weather", "lat": -8.257519581800336, "lon": 103.7386527511359, "alt_km": 834.3468575439229, "timestamp": "2025-12-11T10:53:15.525970+00:00", "meta": {"OBJECT_NAME": "FENGYUN 3A", "OBJECT_ID": "2008-026A", "EPOCH": "2025-12-10T13:42:10.579392", "MEAN_MOTION": 14.19513473, "ECCENTRICITY": 0.0007991, "INCLINATION": 98.6695, "RA_OF_ASC_NODE": 284.1435, "ARG_OF_PERICENTER": 317.2846, "MEAN_ANOMALY": 42.7709, "EPHEMERIS_TYPE": 0, "CLASSIFICATION_TYPE": "U", "NORAD_CAT_ID": 32958, "ELEMENT_SET_NO": 999, "REV_AT_EPOCH": 90864, "BSTAR": 0.00012071, "MEAN_MOTION_DOT": 2.11e-06, "MEAN_MOTION_DDOT": 0}, "tle": {"line1": "1 32958U 08026A   25344.57095578  .00000211  00000+0  12071-3 0  9994", "line2": "2 32958  98.6695 284.1435 0007991 317.2846  42.7709 14.19513473908640"}}, "geometry": {"type": "Point", "coordinates": [103.7386527511359, -8.257519581800336]}}, {"type": "Feature", "properties": {"norad_id": 35491, "name": "GOES 14", "group": "weather", "lat": 0.9230236501428164, "lon": 134.98829764673494, "alt_km": 35813.20892550761, "timestamp": "2025-12-11T10:53:15.525985+00:00", "meta": {"OBJECT_NAME": "GOES 14", "OBJECT_ID": "2009-033A", "EPOCH": "2025-12-10T16:27:03.557376", "MEAN_MOTION": 1.00162418, "ECCENTRICITY": 0.0003441, "INCLINATION": 1.1989, "RA_OF_ASC_NODE": 85.3725, "ARG_OF_PERICENTER": 333.0778, "MEAN_ANOMALY": 159.5038, "EPHEMERIS_TYPE": 0, "CLASSIFICATION_TYPE": "U", "NORAD_CAT_ID": 35491, "ELEMENT_SET_NO": 999, "REV_AT_EPOCH": 470, "BSTAR": 0, "MEAN_MOTION_DOT": -4.6e-07, "MEAN_MOTION_DDOT": 0}, "tle": {"line1": "1 35491U 09033A   25344.68545784 -.00000046  00000+0  00000+0 0  9991", "line2": "2 35491   1.1989  85.3725 0003441 333.0778 159.5038  1.00162418  4700"}}, "geometry": {"type": "Point", "coordinates": [134.98829764673494, 0.9230236501428164]}}, {"type": "Feature", "properties": {"norad_id": 35951, "name": "DMSP 5D-3 F18 (USA 210)", "group": "weather", "lat": 3.332391120878221, "lon": -38.66096429572547, "alt_km": 841.5316044866277, "timestamp": "2025-12-11T10:53:15.525998+00:00", "meta": {"OBJECT_NAME": "DMSP 5D-3 F18 (USA 210)", "OBJECT_ID": "2009-057A", "EPOCH": "2025-12-11T04:04:56.692704", "MEAN_MOTION": 14.14767673, "ECCENTRICITY": 0.0012078, "INCLINATION": 98.8833, "RA_OF_ASC_NODE": 321.5787, "ARG_OF_PERICENTER": 66.8661, "MEAN_ANOMALY": 293.3783, "EPHEMERIS_TYPE": 0, "CLASSIFICATION_TYPE": "U", "NORAD_CAT_ID": 35951, "ELEMENT_SET_NO": 999, "REV_AT_EPOCH": 83300, "BSTAR": 0.00022729, "MEAN_MOTION_DOT": 3.94e-06, "MEAN_MOTION_DDOT": 0}, "tle": {"line1": "1 35951U 09057A   25345.17010061  .00000394  00000+0  22729-3 0  9999", "line2": "2 35951  98.8833 321.5787 0012078  66.8661 293.3783 14.14767673833003"}}, "geometry": {"type": "Point", "coordinates": [-38.66096429572547, 3.332391120878221]}}, {"type": "Feature", "properties": {"norad_id": 36411, "name": "EWS-G2 (GOES 15)", "group": "weather", "lat": -0.5225118562725025, "lon": -54.81208936992757, "alt_km": 35769.321237862816, "timestamp": "2025-12-11T10:53:15.526011+00:00", "meta": {"OBJECT_NAME": "EWS-G2 (GOES 15)", "OBJECT_ID": "2010-008A", "EPOCH": "2025-12-11T03:31:49.630944", "MEAN_MOTION": 1.00269363, "ECCENTRICITY": 0.0005831, "INCLINATION": 0.8103, "RA_OF_ASC_NODE": 86.0602, "ARG_OF_PERICENTER": 174.2299, "MEAN_ANOMALY": 294.1987, "EPHEMERIS_TYPE": 0, "CLASSIFICATION_TYPE": "U", "NORAD_CAT_ID": 36411, "ELEMENT_SET_NO": 999, "REV_AT_EPOCH": 5775, "BSTAR": 0, "MEAN_MOTION_DOT": 4.4e-07, "MEAN_MOTION_DDOT": 0}, "tle": {"line1": "1 36411U 10008A   25345.14710221  .00000044  00000+0  00000+0 0  9997", "line2": "2 36411   0.8103  86.0602 0005831 174.2299 294.1987  1.00269363 57756"}}, "geometry": {"type": "Point", "coordinates": [-54.81208936992757, -0.5225118562725025]}}, {"type": "Feature", "properties": {"norad_id": 36744, "name": "COMS 1", "group": "weather", "lat": -3.9585684618227375, "lon": 11.97313625663377, "alt_km": 35786.45796442555, "timestamp": "2025-12-11T10:53:15.526025+00:00", "meta": {"OBJECT_NAME": "COMS 1", "OBJECT_ID": "2010-032A", "EPOCH": "2025-12-10T15:51:52.946208", "MEAN_MOTION": 1.0027063, "ECCENTRICITY": 0.00011371, "INCLINATION": 4.3367, "RA_OF_ASC_NODE": 78.0199, "ARG_OF_PERICENTER": 211.0495, "MEAN_ANOMALY": 156.7077, "EPHEMERIS_TYPE": 0, "CLASSIFICATION_TYPE": "U", "NORAD_CAT_ID": 36744, "ELEMENT_SET_NO": 999, "REV_AT_EPOCH": 4920, "BSTAR": 0, "MEAN_MOTION_DOT": -3.4e-06, "MEAN_MOTION_DDOT": 0}, "tle": {"line1": "1 36744U 10032A   25344.66102947 -.00000340  00000+0  00000+0 0  9999", "line2": "2 36744   4.3367  78.0199 0001137 211.0495 156.7077  1.00270630 49204"}}, "geometry": {"type": "Point", "coordinates": [11.97313625663377, -3.9585684618227375]}}, {"type": "Feature", "properties": {"norad_id": 37214, "name": "FENGYUN 3B", "group": "weather", "lat": -31.740687842608924, "lon": 31.041715944678558, "alt_km": 835.6800977643561, "timestamp": "2025-12-11T10:53:15.526038+00:00", "meta": {"OBJECT_NAME": "FENGYUN 3B", "OBJECT_ID": "2010-059A", "EPOCH": "2025-12-11T04:34:56.650944", "MEAN_MOTION": 14.14789336, "ECCENTRICITY": 0.002212, "INCLINATION": 98.9906, "RA_OF_ASC_NODE": 25.157, "ARG_OF_PERICENTER": 2.1173, "MEAN_ANOMALY": 68.5991, "EPHEMERIS_TYPE": 0, "CLASSIFICATION_TYPE": "U", "NORAD_CAT_ID": 37214, "ELEMENT_SET_NO": 999, "REV_AT_EPOCH": 78084, "BSTAR": 0.00018323, "MEAN_MOTION_DOT": 3.09e-06, "MEAN_MOTION_DDOT": 0}, "tle": {"line1": "1 37214U 10059A   25345.19093346  .00000309  00000+0  18323-3 0  9997", "line2": "2 37214  98.9906  25.1570 0022120   2.1173  68.5991 14.14789336780842"}}, "geometry": {"type": "Point", "coordinates": [31.041715944678558, -31.740687842608924]}}, {"type": "Feature", "properties": {"norad_id": 37849, "name": "SUOMI NPP", "group": "weather", "lat": 32.42893560539937, "lon": 108.43976586475013, "alt_km": 823.5829722092467, "timestamp": "2025-12-11T10:53:15.526051+00:00", "meta": {"OBJECT_NAME": "SUOMI NPP", "OBJECT_ID": "2011-061A", "EPOCH": "2025-12-11T03:25:50.474784", "MEAN_MOTION": 14.19513422, "ECCENTRICITY": 0.0002198, "INCLINATION": 98.7771, "RA_OF_ASC_NODE": 282.4989, "ARG_OF_PERICENTER": 123.1378, "MEAN_ANOMALY": 237.0009, "EPHEMERIS_TYPE": 0, "CLASSIFICATION_TYPE": "U", "NORAD_CAT_ID": 37849, "ELEMENT_SET_NO": 999, "REV_AT_EPOCH": 73176, "BSTAR": 0.00010459, "MEAN_MOTION_DOT": 1.76e-06, "MEAN_MOTION_DDOT": 0}, "tle": {"line1": "1 37849U 11061A   25345.14294531  .00000176  00000+0  10459-3 0  9993", "line2": "2 37849  98.7771 282.4989 0002198 123.1378 237.0009 14.19513422731766"}}, "geometry": {"type": "Point", "coordinates": [108.43976586475013, 32.42893560539937]}}]}